start=new Date('2022-11-08T00:00:00.000Z').valueOf();
sats=[{"APOAPSIS":"541.154","ELEMENT_SET_NO":"999","GP_ID":"217107544","LAUNCH_DATE":"2022-03-03","FILE":"3648233","CENTER_NAME":"EARTH","MEAN_MOTION":"15.08829205","PERIAPSIS":"538.402","ARG_OF_PERICENTER":"45.5076","EPHEMERIS_TYPE":"0","OBJECT_ID":"2022-022AQ","TIME_SYSTEM":"UTC","RA_OF_ASC_NODE":"66.7528","REV_AT_EPOCH":"3937","COUNTRY_CODE":"US","MEAN_MOTION_DOT":"0.00004156","CLASSIFICATION_TYPE":"U","NORAD_CAT_ID":"51890","PERIOD":"95.438","OBJECT_NAME":"STARLINK-3519","MEAN_MOTION_DDOT":"0.0000000000000","SITE":"AFETR","INCLINATION":"53.2188","MEAN_ANOMALY":"314.6078","TLE_LINE2":"2 51890  53.2188  66.7528 0001989  45.5076 314.6078 15.08829205 39371","ECCENTRICITY":"0.00019890","TLE_LINE1":"1 51890U 22022AQ  22311.73272083  .00004156  00000-0  27917-3 0  9997","RCS_SIZE":"LARGE","SEMIMAJOR_AXIS":"6917.913","MEAN_ELEMENT_THEORY":"SGP4","DECAY_DATE":null,"REF_FRAME":"TEME","EPOCH":"2022-11-07T17:35:07.079712","OBJECT_TYPE":"PAYLOAD","BSTAR":"0.00027917000000"},{"COUNTRY_CODE":"US","TIME_SYSTEM":"UTC","RA_OF_ASC_NODE":"66.8037","REV_AT_EPOCH":"3942","OBJECT_ID":"2022-022AR","EPHEMERIS_TYPE":"0","ARG_OF_PERICENTER":"55.5763","FILE":"3648233","PERIAPSIS":"538.475","MEAN_MOTION":"15.08830932","CENTER_NAME":"EARTH","LAUNCH_DATE":"2022-03-03","APOAPSIS":"541.072","GP_ID":"217106292","ELEMENT_SET_NO":"999","REF_FRAME":"TEME","EPOCH":"2022-11-07T17:19:13.601280","DECAY_DATE":null,"OBJECT_TYPE":"PAYLOAD","BSTAR":"0.00031450000000","TLE_LINE1":"1 51891U 22022AR  22311.72168520  .00004720  00000-0  31450-3 0  9991","SEMIMAJOR_AXIS":"6917.908","RCS_SIZE":"LARGE","ECCENTRICITY":"0.00018770","MEAN_ELEMENT_THEORY":"SGP4","TLE_LINE2":"2 51891  53.2205  66.8037 0001877  55.5763 304.5406 15.08830932 39426","MEAN_ANOMALY":"304.5406","INCLINATION":"53.2205","SITE":"AFETR","MEAN_MOTION_DDOT":"0.0000000000000","OBJECT_NAME":"STARLINK-3549","CLASSIFICATION_TYPE":"U","NORAD_CAT_ID":"51891","MEAN_MOTION_DOT":"0.00004720","PERIOD":"95.438"},{"TLE_LINE1":"1 51892U 22022AS  22311.59655462  .00001996  00000-0  14349-3 0  9993","ECCENTRICITY":"0.00017010","RCS_SIZE":"LARGE","SEMIMAJOR_AXIS":"6917.908","MEAN_ELEMENT_THEORY":"SGP4","DECAY_DATE":null,"EPOCH":"2022-11-07T14:19:02.319168","REF_FRAME":"TEME","BSTAR":"0.00014349000000","OBJECT_TYPE":"PAYLOAD","INCLINATION":"53.2190","MEAN_ANOMALY":"304.2344","TLE_LINE2":"2 51892  53.2190  67.3680 0001701  55.8809 304.2344 15.08831066 39359","SITE":"AFETR","MEAN_MOTION_DOT":"0.00001996","CLASSIFICATION_TYPE":"U","NORAD_CAT_ID":"51892","PERIOD":"95.438","MEAN_MOTION_DDOT":"0.0000000000000","OBJECT_NAME":"STARLINK-3587","TIME_SYSTEM":"UTC","RA_OF_ASC_NODE":"67.3680","REV_AT_EPOCH":"3935","COUNTRY_CODE":"US","EPHEMERIS_TYPE":"0","OBJECT_ID":"2022-022AS","FILE":"3648233","CENTER_NAME":"EARTH","PERIAPSIS":"538.596","MEAN_MOTION":"15.08831066","ARG_OF_PERICENTER":"55.8809","APOAPSIS":"540.949","ELEMENT_SET_NO":"999","GP_ID":"217106542","LAUNCH_DATE":"2022-03-03"},{"FILE":"3648233","CENTER_NAME":"EARTH","MEAN_MOTION":"15.08826794","PERIAPSIS":"538.534","ARG_OF_PERICENTER":"50.5176","APOAPSIS":"541.037","ELEMENT_SET_NO":"999","GP_ID":"217107793","LAUNCH_DATE":"2022-03-03","TIME_SYSTEM":"UTC","RA_OF_ASC_NODE":"67.7233","REV_AT_EPOCH":"3940","COUNTRY_CODE":"US","EPHEMERIS_TYPE":"0","OBJECT_ID":"2022-022AT","SITE":"AFETR","MEAN_MOTION_DOT":"0.00002762","NORAD_CAT_ID":"51893","CLASSIFICATION_TYPE":"U","PERIOD":"95.438","MEAN_MOTION_DDOT":"0.0000000000000","OBJECT_NAME":"STARLINK-3579","RCS_SIZE":"LARGE","TLE_LINE1":"1 51893U 22022AT  22311.51560269  .00002762  00000-0  19161-3 0  9995","ECCENTRICITY":"0.00018090","SEMIMAJOR_AXIS":"6917.921","MEAN_ELEMENT_THEORY":"SGP4","DECAY_DATE":null,"EPOCH":"2022-11-07T12:22:28.072416","REF_FRAME":"TEME","OBJECT_TYPE":"PAYLOAD","BSTAR":"0.00019161000000","INCLINATION":"53.2200","MEAN_ANOMALY":"309.5975","TLE_LINE2":"2 51893  53.2200  67.7233 0001809  50.5176 309.5975 15.08826794 39404"},{"TLE_LINE2":"2 51894  53.2194  67.7127 0002088  39.9546 320.1600 15.08835340 39402","MEAN_ANOMALY":"320.1600","INCLINATION":"53.2194","EPOCH":"2022-11-07T12:27:45.679680","REF_FRAME":"TEME","DECAY_DATE":null,"OBJECT_TYPE":"PAYLOAD","BSTAR":"0.00005118200000","RCS_SIZE":"LARGE","TLE_LINE1":"1 51894U 22022AU  22311.51927870  .00000526  00000-0  51182-4 0  9997","SEMIMAJOR_AXIS":"6917.895","ECCENTRICITY":"0.00020880","MEAN_ELEMENT_THEORY":"SGP4","MEAN_MOTION_DDOT":"0.0000000000000","OBJECT_NAME":"STARLINK-3595","CLASSIFICATION_TYPE":"U","NORAD_CAT_ID":"51894","MEAN_MOTION_DOT":"0.00000526","PERIOD":"95.438","SITE":"AFETR","OBJECT_ID":"2022-022AU","EPHEMERIS_TYPE":"0","COUNTRY_CODE":"US","RA_OF_ASC_NODE":"67.7127","TIME_SYSTEM":"UTC","REV_AT_EPOCH":"3940","LAUNCH_DATE":"2022-03-03","APOAPSIS":"541.204","GP_ID":"217108044","ELEMENT_SET_NO":"999","ARG_OF_PERICENTER":"39.9546","FILE":"3648233","PERIAPSIS":"538.315","MEAN_MOTION":"15.08835340","CENTER_NAME":"EARTH"},{"TIME_SYSTEM":"UTC","RA_OF_ASC_NODE":"67.7356","REV_AT_EPOCH":"3934","COUNTRY_CODE":"US","EPHEMERIS_TYPE":"0","OBJECT_ID":"2022-022AV","FILE":"3648233","CENTER_NAME":"EARTH","MEAN_MOTION":"15.08826853","PERIAPSIS":"538.698","ARG_OF_PERICENTER":"36.1716","APOAPSIS":"540.873","ELEMENT_SET_NO":"999","GP_ID":"217106792","LAUNCH_DATE":"2022-03-03","RCS_SIZE":"LARGE","TLE_LINE1":"1 51895U 22022AV  22311.51192757  .00004379  00000-0  29316-3 0  9999","ECCENTRICITY":"0.00015720","SEMIMAJOR_AXIS":"6917.921","MEAN_ELEMENT_THEORY":"SGP4","DECAY_DATE":null,"REF_FRAME":"TEME","EPOCH":"2022-11-07T12:17:10.542048","OBJECT_TYPE":"PAYLOAD","BSTAR":"0.00029316000000","INCLINATION":"53.2192","MEAN_ANOMALY":"323.9383","TLE_LINE2":"2 51895  53.2192  67.7356 0001572  36.1716 323.9383 15.08826853 39341","SITE":"AFETR","MEAN_MOTION_DOT":"0.00004379","NORAD_CAT_ID":"51895","CLASSIFICATION_TYPE":"U","PERIOD":"95.438","OBJECT_NAME":"STARLINK-3594","MEAN_MOTION_DDOT":"0.0000000000000"},{"EPHEMERIS_TYPE":"0","OBJECT_ID":"2022-022AW","RA_OF_ASC_NODE":"67.7273","TIME_SYSTEM":"UTC","REV_AT_EPOCH":"3939","COUNTRY_CODE":"US","APOAPSIS":"541.187","GP_ID":"217107042","ELEMENT_SET_NO":"999","LAUNCH_DATE":"2022-03-03","FILE":"3648233","PERIAPSIS":"538.433","MEAN_MOTION":"15.08818890","CENTER_NAME":"EARTH","ARG_OF_PERICENTER":"50.0566","MEAN_ANOMALY":"310.0601","INCLINATION":"53.2198","TLE_LINE2":"2 51896  53.2198  67.7273 0001990  50.0566 310.0601 15.08818890 39395","RCS_SIZE":"LARGE","TLE_LINE1":"1 51896U 22022AW  22311.51288442  .00001286  00000-0  98954-4 0  9996","SEMIMAJOR_AXIS":"6917.945","ECCENTRICITY":"0.00019900","MEAN_ELEMENT_THEORY":"SGP4","EPOCH":"2022-11-07T12:18:33.213888","REF_FRAME":"TEME","DECAY_DATE":null,"BSTAR":"0.00009895400000","OBJECT_TYPE":"PAYLOAD","CLASSIFICATION_TYPE":"U","NORAD_CAT_ID":"51896","MEAN_MOTION_DOT":"0.00001286","PERIOD":"95.439","MEAN_MOTION_DDOT":"0.0000000000000","OBJECT_NAME":"STARLINK-3593","SITE":"AFETR"},{"MEAN_ANOMALY":"306.3766","INCLINATION":"53.2189","TLE_LINE2":"2 51897  53.2189  67.7625 0001651  53.7378 306.3766 15.08837517 39344","MEAN_ELEMENT_THEORY":"SGP4","SEMIMAJOR_AXIS":"6917.888","TLE_LINE1":"1 51897U 22022AX  22311.50824011  .00000087  00000-0  23551-4 0  9993","RCS_SIZE":"LARGE","ECCENTRICITY":"0.00016510","BSTAR":"0.00002355100000","OBJECT_TYPE":"PAYLOAD","REF_FRAME":"TEME","EPOCH":"2022-11-07T12:11:51.945504","DECAY_DATE":null,"PERIOD":"95.438","CLASSIFICATION_TYPE":"U","NORAD_CAT_ID":"51897","MEAN_MOTION_DOT":"0.00000087","MEAN_MOTION_DDOT":"0.0000000000000","OBJECT_NAME":"STARLINK-3598","SITE":"AFETR","EPHEMERIS_TYPE":"0","OBJECT_ID":"2022-022AX","REV_AT_EPOCH":"3934","RA_OF_ASC_NODE":"67.7625","TIME_SYSTEM":"UTC","COUNTRY_CODE":"US","GP_ID":"217107294","ELEMENT_SET_NO":"999","APOAPSIS":"540.895","LAUNCH_DATE":"2022-03-03","PERIAPSIS":"538.611","MEAN_MOTION":"15.08837517","CENTER_NAME":"EARTH","FILE":"3648233","ARG_OF_PERICENTER":"53.7378"},{"FILE":"3648233","PERIAPSIS":"538.698","MEAN_MOTION":"15.08835538","CENTER_NAME":"EARTH","ARG_OF_PERICENTER":"56.4046","APOAPSIS":"540.820","GP_ID":"217107545","ELEMENT_SET_NO":"999","LAUNCH_DATE":"2022-03-03","TIME_SYSTEM":"UTC","RA_OF_ASC_NODE":"67.7765","REV_AT_EPOCH":"3939","COUNTRY_CODE":"US","EPHEMERIS_TYPE":"0","OBJECT_ID":"2022-022AY","SITE":"AFETR","NORAD_CAT_ID":"51898","CLASSIFICATION_TYPE":"U","MEAN_MOTION_DOT":"0.00001814","PERIOD":"95.438","OBJECT_NAME":"STARLINK-3597","MEAN_MOTION_DDOT":"0.0000000000000","RCS_SIZE":"LARGE","TLE_LINE1":"1 51898U 22022AY  22311.50455706  .00001814  00000-0  13205-3 0  9998","SEMIMAJOR_AXIS":"6917.894","ECCENTRICITY":"0.00015340","MEAN_ELEMENT_THEORY":"SGP4","REF_FRAME":"TEME","EPOCH":"2022-11-07T12:06:33.729984","DECAY_DATE":null,"OBJECT_TYPE":"PAYLOAD","BSTAR":"0.00013205000000","MEAN_ANOMALY":"303.7093","INCLINATION":"53.2206","TLE_LINE2":"2 51898  53.2206  67.7765 0001534  56.4046 303.7093 15.08835538 39392"},{"OBJECT_TYPE":"PAYLOAD","BSTAR":"0.00005808400000","EPOCH":"2022-11-07T19:01:14.104704","REF_FRAME":"TEME","DECAY_DATE":null,"MEAN_ELEMENT_THEORY":"SGP4","TLE_LINE1":"1 51956U 22025A   22311.79252436  .00000636  00000-0  58084-4 0  9998","SEMIMAJOR_AXIS":"6917.919","RCS_SIZE":"LARGE","ECCENTRICITY":"0.00019480","TLE_LINE2":"2 51956  53.2177  96.4757 0001948  43.3839 316.7307 15.08827505 37337","MEAN_ANOMALY":"316.7307","INCLINATION":"53.2177","SITE":"AFETR","OBJECT_NAME":"STARLINK-3700","MEAN_MOTION_DDOT":"0.0000000000000","PERIOD":"95.438","NORAD_CAT_ID":"51956","CLASSIFICATION_TYPE":"U","MEAN_MOTION_DOT":"0.00000636","COUNTRY_CODE":"US","REV_AT_EPOCH":"3733","TIME_SYSTEM":"UTC","RA_OF_ASC_NODE":"96.4757","OBJECT_ID":"2022-025A","EPHEMERIS_TYPE":"0","ARG_OF_PERICENTER":"43.3839","PERIAPSIS":"538.436","MEAN_MOTION":"15.08827505","CENTER_NAME":"EARTH","FILE":"3648233","LAUNCH_DATE":"2022-03-09","GP_ID":"217106295","ELEMENT_SET_NO":"999","APOAPSIS":"541.131"}];
